QIANFAN-57              
1 62787U 25016C   25347.63988540  .00000171  00000+0  24609-3 0  9990
2 62787  88.9785 103.1063 0002312 121.2312 238.9066 13.50976771 47327
QIANFAN-58              
1 62788U 25016D   25347.61108155  .00000175  00000+0  25301-3 0  9999
2 62788  88.9754 102.9406 0012938 346.8082  13.2729 13.50978618 47362
QIANFAN-59              
1 62789U 25016E   25347.63574041  .00000164  00000+0  23492-3 0  9990
2 62789  88.9778 103.0120 0013420 350.6256   9.4643 13.50980210 47360
QIANFAN-60              
1 62790U 25016F   25347.59473243  .00000061  00000+0  76036-4 0  9998
2 62790  88.9759 102.9876 0014810 346.4092  13.6658 13.50983659 47343
QIANFAN-61              
1 62791U 25016G   25347.62752107  .00000175  00000+0  25189-3 0  9990
2 62791  88.9826 103.1477 0013783 346.0748  14.0022 13.50980650 47361
QIANFAN-62              
1 62792U 25016H   25347.63163716  .00000165  00000+0  23632-3 0  9994
2 62792  88.9773 103.0152 0015162 345.8837  14.1888 13.50977086 47350
QIANFAN-63              
1 62793U 25016J   25347.65634702  .00000181  00000+0  26136-3 0  9995
2 62793  88.9780 102.9643 0015354 351.4092   8.6794 13.50983816 47397
QIANFAN-64              
1 62794U 25016K   25347.62339085  .00000167  00000+0  24018-3 0  9990
2 62794  88.9766 102.9416 0013130 344.8870  15.1887 13.50978885 47385
